GLOBALSTAR M094         
1 39074U 13005C   25033.64311399 -.00000105  00000+0 -78303-5 0  9994
2 39074  51.9930 231.7650 0000932  66.9891 293.1074 12.62268015555407
GLOBALSTAR M096         
1 39075U 13005D   25033.57717102 -.00000070  00000+0  19115-3 0  9993
2 39075  52.0072 280.3777 0000744  48.2334 311.8596 12.62267869554641
GLOBALSTAR M078         
1 39076U 13005E   25033.31256050 -.00000078  00000+0  14209-3 0  9993
2 39076  51.9895   5.8685 0000612 233.0294 127.0516 12.62269738552884
GLOBALSTAR M095         
1 39077U 13005F   25033.18104430 -.00000097  00000+0  37405-4 0  9998
2 39077  51.9822   3.5361 0000311 305.4644  54.6193 12.62265810552726
GLOBALSTAR M087         
1 52888U 22064A   25033.52852026 -.00000095  00000+0  50836-4 0  9998
2 52888  51.9785 143.8847 0000687 114.2374 245.8564 12.62268195128036
